[
    {
        "Altitude(m)": 556861.2657249967,
        "Argument of Periapsis(deg)": 0.0,
        "Eccentricity": 0.0,
        "Inclination(deg)": 53.0,
        "Latitude(deg)": -13.154221661447538,
        "Longitude(deg)": -95.05632549192782,
        "Mean Anomaly(deg)": 343.6364,
        "RAAN(deg)": 15.0,
        "Satellite Name": "Starlink Shell 1 87",
        "Satellite Number": 87,
        "Semi-Major Axis(m)": 6931778.249405717,
        "Time(s)": 0
    },
    {
        "Altitude(m)": 556730.2688034173,
        "Argument of Periapsis(deg)": 0.00034857847951123687,
        "Eccentricity": 0.0,
        "Inclination(deg)": 53.0,
        "Latitude(deg)": -12.658322872434427,
        "Longitude(deg)": -94.70156612064491,
        "Mean Anomaly(deg)": 344.26323120355664,
        "RAAN(deg)": 14.999481229922527,
        "Satellite Name": "Starlink Shell 1 87",
        "Satellite Number": 87,
        "Semi-Major Axis(m)": 6931778.249405717,
        "Time(s)": 10
    },
    {
        "Altitude(m)": 556601.450573243,
        "Argument of Periapsis(deg)": 0.0006971569590224737,
        "Eccentricity": 0.0,
        "Inclination(deg)": 53.0,
        "Latitude(deg)": -12.161805482188724,
        "Longitude(deg)": -94.3483225828104,
        "Mean Anomaly(deg)": 344.8900624071134,
        "RAAN(deg)": 14.998962459845055,
        "Satellite Name": "Starlink Shell 1 87",
        "Satellite Number": 87,
        "Semi-Major Axis(m)": 6931778.249405717,
        "Time(s)": 20
    },
    {
        "Altitude(m)": 556474.8505131052,
        "Argument of Periapsis(deg)": 0.0010457354385337105,
        "Eccentricity": 0.0,
        "Inclination(deg)": 53.0,
        "Latitude(deg)": -11.664696036853822,
        "Longitude(deg)": -93.9965296796757,
        "Mean Anomaly(deg)": -14.483106389329926,
        "RAAN(deg)": 14.99844368976758,
        "Satellite Name": "Starlink Shell 1 87",
        "Satellite Number": 87,
        "Semi-Major Axis(m)": 6931778.249405717,
        "Time(s)": 30
    },
    {
        "Altitude(m)": 556350.5069690895,
        "Argument of Periapsis(deg)": 0.0013943139180449475,
        "Eccentricity": 0.0,
        "Inclination(deg)": 53.0,
        "Latitude(deg)": -11.167020776864554,
        "Longitude(deg)": -93.64612232734756,
        "Mean Anomaly(deg)": -13.856275185773113,
        "RAAN(deg)": 14.997924919690107,
        "Satellite Name": "Starlink Shell 1 87",
        "Satellite Number": 87,
        "Semi-Major Axis(m)": 6931778.249405717,
        "Time(s)": 40
    },
    {
        "Altitude(m)": 556228.457138387,
        "Argument of Periapsis(deg)": 0.0017428923975561844,
        "Eccentricity": 0.0,
        "Inclination(deg)": 53.0,
        "Latitude(deg)": -10.668805651802225,
        "Longitude(deg)": -93.29703653879129,
        "Mean Anomaly(deg)": -13.229443982216454,
        "RAAN(deg)": 14.997406149612633,
        "Satellite Name": "Starlink Shell 1 87",
        "Satellite Number": 87,
        "Semi-Major Axis(m)": 6931778.249405717,
        "Time(s)": 50
    },
    {
        "Altitude(m)": 556108.7370534595,
        "Argument of Periapsis(deg)": 0.002091470877067421,
        "Eccentricity": 0.0,
        "Inclination(deg)": 53.0,
        "Latitude(deg)": -10.170076334980545,
        "Longitude(deg)": -92.94920889301932,
        "Mean Anomaly(deg)": -12.602612778659797,
        "RAAN(deg)": 14.996887379535163,
        "Satellite Name": "Starlink Shell 1 87",
        "Satellite Number": 87,
        "Semi-Major Axis(m)": 6931778.249405717,
        "Time(s)": 60
    },
    {
        "Altitude(m)": 555991.3815668559,
        "Argument of Periapsis(deg)": 0.0024400493565786582,
        "Eccentricity": 0.0,
        "Inclination(deg)": 53.0,
        "Latitude(deg)": -9.670858237775821,
        "Longitude(deg)": -92.60257600434784,
        "Mean Anomaly(deg)": -11.975781575102985,
        "RAAN(deg)": 14.99636860945769,
        "Satellite Name": "Starlink Shell 1 87",
        "Satellite Number": 87,
        "Semi-Major Axis(m)": 6931778.249405717,
        "Time(s)": 70
    },
    {
        "Altitude(m)": 555876.4243365275,
        "Argument of Periapsis(deg)": 0.002788627836089895,
        "Eccentricity": 0.0,
        "Inclination(deg)": 53.0,
        "Latitude(deg)": -9.171176523712932,
        "Longitude(deg)": -92.25707550460062,
        "Mean Anomaly(deg)": -11.348950371546325,
        "RAAN(deg)": 14.995849839380215,
        "Satellite Name": "Starlink Shell 1 87",
        "Satellite Number": 87,
        "Semi-Major Axis(m)": 6931778.249405717,
        "Time(s)": 80
    },
    {
        "Altitude(m)": 555763.8978118178,
        "Argument of Periapsis(deg)": 0.0031372063156011316,
        "Eccentricity": 0.0,
        "Inclination(deg)": 53.0,
        "Latitude(deg)": -8.671056122318403,
        "Longitude(deg)": -91.91264551251676,
        "Mean Anomaly(deg)": -10.722119167989616,
        "RAAN(deg)": 14.995331069302743,
        "Satellite Name": "Starlink Shell 1 87",
        "Satellite Number": 87,
        "Semi-Major Axis(m)": 6931778.249405717,
        "Time(s)": 90
    },
    {
        "Altitude(m)": 555653.8332199876,
        "Argument of Periapsis(deg)": 0.0034857847951123688,
        "Eccentricity": 0.0,
        "Inclination(deg)": 53.0,
        "Latitude(deg)": -8.170521742755122,
        "Longitude(deg)": -91.56922410323982,
        "Mean Anomaly(deg)": -10.095287964432856,
        "RAAN(deg)": 14.99481229922527,
        "Satellite Name": "Starlink Shell 1 87",
        "Satellite Number": 87,
        "Semi-Major Axis(m)": 6931778.249405717,
        "Time(s)": 100
    },
    {
        "Altitude(m)": 555546.260553382,
        "Argument of Periapsis(deg)": 0.003834363274623606,
        "Eccentricity": 0.0,
        "Inclination(deg)": 53.0,
        "Latitude(deg)": -7.669597887248144,
        "Longitude(deg)": -91.2267502907644,
        "Mean Anomaly(deg)": -9.468456760876197,
        "RAAN(deg)": 14.994293529147798,
        "Satellite Name": "Starlink Shell 1 87",
        "Satellite Number": 87,
        "Semi-Major Axis(m)": 6931778.249405717,
        "Time(s)": 110
    },
    {
        "Altitude(m)": 555441.2085572114,
        "Argument of Periapsis(deg)": 0.004182941754134842,
        "Eccentricity": 0.0,
        "Inclination(deg)": 53.0,
        "Latitude(deg)": -7.168308864314811,
        "Longitude(deg)": -90.88516349759192,
        "Mean Anomaly(deg)": -8.841625557319437,
        "RAAN(deg)": 14.993774759070327,
        "Satellite Name": "Starlink Shell 1 87",
        "Satellite Number": 87,
        "Semi-Major Axis(m)": 6931778.249405717,
        "Time(s)": 120
    },
    {
        "Altitude(m)": 555338.7047179358,
        "Argument of Periapsis(deg)": 0.004531520233646079,
        "Eccentricity": 0.0,
        "Inclination(deg)": 53.0,
        "Latitude(deg)": -6.666678801811867,
        "Longitude(deg)": -90.54440302447149,
        "Mean Anomaly(deg)": -8.214794353762729,
        "RAAN(deg)": 14.993255988992853,
        "Satellite Name": "Starlink Shell 1 87",
        "Satellite Number": 87,
        "Semi-Major Axis(m)": 6931778.249405717,
        "Time(s)": 130
    },
    {
        "Altitude(m)": 555238.7752522951,
        "Argument of Periapsis(deg)": 0.0048800987131573164,
        "Eccentricity": 0.0,
        "Inclination(deg)": 53.0,
        "Latitude(deg)": -6.164731659809239,
        "Longitude(deg)": -90.20440903309583,
        "Mean Anomaly(deg)": -7.587963150206018,
        "RAAN(deg)": 14.992737218915378,
        "Satellite Name": "Starlink Shell 1 87",
        "Satellite Number": 87,
        "Semi-Major Axis(m)": 6931778.249405717,
        "Time(s)": 140
    },
    {
        "Altitude(m)": 555141.4450969623,
        "Argument of Periapsis(deg)": 0.005228677192668553,
        "Eccentricity": 0.0,
        "Inclination(deg)": 53.0,
        "Latitude(deg)": -5.662491243304575,
        "Longitude(deg)": -89.86512201600468,
        "Mean Anomaly(deg)": -6.961131946649308,
        "RAAN(deg)": 14.992218448837905,
        "Satellite Name": "Starlink Shell 1 87",
        "Satellite Number": 87,
        "Semi-Major Axis(m)": 6931778.249405717,
        "Time(s)": 150
    },
    {
        "Altitude(m)": 555046.737898843,
        "Argument of Periapsis(deg)": 0.00557725567217979,
        "Eccentricity": 0.0,
        "Inclination(deg)": 53.0,
        "Latitude(deg)": -5.159981214788927,
        "Longitude(deg)": -89.52648226656551,
        "Mean Anomaly(deg)": -6.334300743092599,
        "RAAN(deg)": 14.991699678760435,
        "Satellite Name": "Starlink Shell 1 87",
        "Satellite Number": 87,
        "Semi-Major Axis(m)": 6931778.249405717,
        "Time(s)": 160
    },
    {
        "Altitude(m)": 554954.6760059944,
        "Argument of Periapsis(deg)": 0.0059258341516910265,
        "Eccentricity": 0.0,
        "Inclination(deg)": 53.0,
        "Latitude(deg)": -4.657225106675335,
        "Longitude(deg)": -89.18843086190194,
        "Mean Anomaly(deg)": -5.707469539535839,
        "RAAN(deg)": 14.991180908682962,
        "Satellite Name": "Starlink Shell 1 87",
        "Satellite Number": 87,
        "Semi-Major Axis(m)": 6931778.249405717,
        "Time(s)": 170
    },
    {
        "Altitude(m)": 554865.2804592464,
        "Argument of Periapsis(deg)": 0.006274412631202263,
        "Eccentricity": 0.0,
        "Inclination(deg)": 53.0,
        "Latitude(deg)": -4.154246333602659,
        "Longitude(deg)": -88.85090913301839,
        "Mean Anomaly(deg)": -5.08063833597918,
        "RAAN(deg)": 14.990662138605488,
        "Satellite Name": "Starlink Shell 1 87",
        "Satellite Number": 87,
        "Semi-Major Axis(m)": 6931778.249405717,
        "Time(s)": 180
    }
]